{
  "type": "FeatureCollection",
  "features": [
    {
      "type": "Feature",
      "properties": {
        "norad_id": 34141,
        "name": "COSMOS 2251 DEB",
        "group": "cosmos-2251-debris",
        "lat": -54.82943503614425,
        "lon": -111.79766360525744,
        "alt_km": 744.070524540005,
        "timestamp": "2025-12-04T13:52:00.835499+00:00",
        "meta_object_name": "COSMOS 2251 DEB",
        "meta_object_id": "1993-036LN",
        "meta_epoch": "2025-12-04T06:26:07.285632",
        "meta_mean_motion": 14.49087146,
        "meta_eccentricity": 0.00482688,
        "meta_inclination": 74.0119,
        "meta_ra_of_asc_node": 44.7747,
        "meta_arg_of_pericenter": 133.7183,
        "meta_mean_anomaly": 289.2417,
        "meta_ephemeris_type": 0,
        "meta_classification_type": "U",
        "meta_norad_cat_id": 34141,
        "meta_element_set_no": 999,
        "meta_rev_at_epoch": 87571,
        "meta_bstar": 0.0042114756,
        "meta_mean_motion_dot": 0.00016251,
        "meta_mean_motion_ddot": 0,
        "tle_line1": "1 34141U 93036LN  25338.26813988  .00016251  00000+0  42115-2 0  9999",
        "tle_line2": "2 34141  74.0119  44.7747 0048268 133.7183 289.2417 14.49087146875719"
      },
      "geometry": {
        "type": "Point",
        "coordinates": [
          -111.79766360525744,
          -54.82943503614425
        ]
      }
    },
    {
      "type": "Feature",
      "properties": {
        "norad_id": 34270,
        "name": "COSMOS 2251 DEB",
        "group": "cosmos-2251-debris",
        "lat": 73.41936754893982,
        "lon": 36.71847223425516,
        "alt_km": 640.7606078805793,
        "timestamp": "2025-12-04T13:52:00.835509+00:00",
        "meta_object_name": "COSMOS 2251 DEB",
        "meta_object_id": "1993-036LQ",
        "meta_epoch": "2025-12-04T06:55:24.428352",
        "meta_mean_motion": 14.65088555,
        "meta_eccentricity": 0.0047837,
        "meta_inclination": 74.0111,
        "meta_ra_of_asc_node": 322.9119,
        "meta_arg_of_pericenter": 118.3415,
        "meta_mean_anomaly": 242.2591,
        "meta_ephemeris_type": 0,
        "meta_classification_type": "U",
        "meta_norad_cat_id": 34270,
        "meta_element_set_no": 999,
        "meta_rev_at_epoch": 88972,
        "meta_bstar": 0.00087783957,
        "meta_mean_motion_dot": 4.765e-05,
        "meta_mean_motion_ddot": 0,
        "tle_line1": "1 34270U 93036LQ  25338.28847718  .00004765  00000+0  87784-3 0  9991",
        "tle_line2": "2 34270  74.0111 322.9119 0047837 118.3415 242.2591 14.65088555889727"
      },
      "geometry": {
        "type": "Point",
        "coordinates": [
          36.71847223425516,
          73.41936754893982
        ]
      }
    },
    {
      "type": "Feature",
      "properties": {
        "norad_id": 34271,
        "name": "COSMOS 2251 DEB",
        "group": "cosmos-2251-debris",
        "lat": -47.670156535975636,
        "lon": 53.51866195679778,
        "alt_km": 655.3977874970706,
        "timestamp": "2025-12-04T13:52:00.835519+00:00",
        "meta_object_name": "COSMOS 2251 DEB",
        "meta_object_id": "1993-036LR",
        "meta_epoch": "2025-12-03T03:13:29.779680",
        "meta_mean_motion": 14.70407197,
        "meta_eccentricity": 0.0019792,
        "meta_inclination": 74.0207,
        "meta_ra_of_asc_node": 217.985,
        "meta_arg_of_pericenter": 273.2081,
        "meta_mean_anomaly": 239.5046,
        "meta_ephemeris_type": 0,
        "meta_classification_type": "U",
        "meta_norad_cat_id": 34271,
        "meta_element_set_no": 999,
        "meta_rev_at_epoch": 88093,
        "meta_bstar": 0.0025987006,
        "meta_mean_motion_dot": 0.00015783,
        "meta_mean_motion_ddot": 0,
        "tle_line1": "1 34271U 93036LR  25337.13437245  .00015783  00000+0  25987-2 0  9993",
        "tle_line2": "2 34271  74.0207 217.9850 0019792 273.2081 239.5046 14.70407197880939"
      },
      "geometry": {
        "type": "Point",
        "coordinates": [
          53.51866195679778,
          -47.670156535975636
        ]
      }
    },
    {
      "type": "Feature",
      "properties": {
        "norad_id": 34273,
        "name": "COSMOS 2251 DEB",
        "group": "cosmos-2251-debris",
        "lat": 11.936013720416149,
        "lon": -80.43855642881762,
        "alt_km": 685.5926960534343,
        "timestamp": "2025-12-04T13:52:00.835529+00:00",
        "meta_object_name": "COSMOS 2251 DEB",
        "meta_object_id": "1993-036LT",
        "meta_epoch": "2025-12-04T02:24:21.307104",
        "meta_mean_motion": 14.61084508,
        "meta_eccentricity": 0.00144867,
        "meta_inclination": 74.0347,
        "meta_ra_of_asc_node": 103.9434,
        "meta_arg_of_pericenter": 229.286,
        "meta_mean_anomaly": 307.5298,
        "meta_ephemeris_type": 0,
        "meta_classification_type": "U",
        "meta_norad_cat_id": 34273,
        "meta_element_set_no": 999,
        "meta_rev_at_epoch": 88495,
        "meta_bstar": 0.0022635299,
        "meta_mean_motion_dot": 0.00011129,
        "meta_mean_motion_ddot": 0,
        "tle_line1": "1 34273U 93036LT  25338.10024661  .00011129  00000+0  22635-2 0  9994",
        "tle_line2": "2 34273  74.0347 103.9434 0014486 229.2860 307.5298 14.61084508884957"
      },
      "geometry": {
        "type": "Point",
        "coordinates": [
          -80.43855642881762,
          11.936013720416149
        ]
      }
    },
    {
      "type": "Feature",
      "properties": {
        "norad_id": 34274,
        "name": "COSMOS 2251 DEB",
        "group": "cosmos-2251-debris",
        "lat": 32.81295590637314,
        "lon": -106.36792927259106,
        "alt_km": 675.6039758246334,
        "timestamp": "2025-12-04T13:52:00.835539+00:00",
        "meta_object_name": "COSMOS 2251 DEB",
        "meta_object_id": "1993-036LU",
        "meta_epoch": "2025-12-04T06:46:46.536384",
        "meta_mean_motion": 14.64607254,
        "meta_eccentricity": 0.00224574,
        "meta_inclination": 74.0047,
        "meta_ra_of_asc_node": 84.8589,
        "meta_arg_of_pericenter": 234.9978,
        "meta_mean_anomaly": 154.4712,
        "meta_ephemeris_type": 0,
        "meta_classification_type": "U",
        "meta_norad_cat_id": 34274,
        "meta_element_set_no": 999,
        "meta_rev_at_epoch": 88552,
        "meta_bstar": 0.0031303187,
        "meta_mean_motion_dot": 0.00016701,
        "meta_mean_motion_ddot": 0,
        "tle_line1": "1 34274U 93036LU  25338.28248306  .00016701  00000+0  31303-2 0  9991",
        "tle_line2": "2 34274  74.0047  84.8589 0022457 234.9978 154.4712 14.64607254885529"
      },
      "geometry": {
        "type": "Point",
        "coordinates": [
          -106.36792927259106,
          32.81295590637314
        ]
      }
    },
    {
      "type": "Feature",
      "properties": {
        "norad_id": 34276,
        "name": "COSMOS 2251 DEB",
        "group": "cosmos-2251-debris",
        "lat": -52.50504271015707,
        "lon": 78.90862243225442,
        "alt_km": 700.1873442101778,
        "timestamp": "2025-12-04T13:52:00.835549+00:00",
        "meta_object_name": "COSMOS 2251 DEB",
        "meta_object_id": "1993-036LW",
        "meta_epoch": "2025-12-03T12:18:44.712864",
        "meta_mean_motion": 14.57112941,
        "meta_eccentricity": 0.00227996,
        "meta_inclination": 74.0226,
        "meta_ra_of_asc_node": 102.8605,
        "meta_arg_of_pericenter": 250.0797,
        "meta_mean_anomaly": 231.05,
        "meta_ephemeris_type": 0,
        "meta_classification_type": "U",
        "meta_norad_cat_id": 34276,
        "meta_element_set_no": 999,
        "meta_rev_at_epoch": 88458,
        "meta_bstar": 0.0013863393,
        "meta_mean_motion_dot": 6.247e-05,
        "meta_mean_motion_ddot": 0,
        "tle_line1": "1 34276U 93036LW  25337.51301751  .00006247  00000+0  13863-2 0  9997",
        "tle_line2": "2 34276  74.0226 102.8605 0022799 250.0797 231.0500 14.57112941884585"
      },
      "geometry": {
        "type": "Point",
        "coordinates": [
          78.90862243225442,
          -52.50504271015707
        ]
      }
    },
    {
      "type": "Feature",
      "properties": {
        "norad_id": 34297,
        "name": "COSMOS 2251 DEB",
        "group": "cosmos-2251-debris",
        "lat": -19.23140110278469,
        "lon": 124.94665752179442,
        "alt_km": 786.3198262535107,
        "timestamp": "2025-12-04T13:52:00.835559+00:00",
        "meta_object_name": "COSMOS 2251 DEB",
        "meta_object_id": "1993-036MT",
        "meta_epoch": "2025-12-04T06:47:15.398304",
        "meta_mean_motion": 14.36617294,
        "meta_eccentricity": 0.00168909,
        "meta_inclination": 74.0483,
        "meta_ra_of_asc_node": 299.7617,
        "meta_arg_of_pericenter": 10.2824,
        "meta_mean_anomaly": 104.755,
        "meta_ephemeris_type": 0,
        "meta_classification_type": "U",
        "meta_norad_cat_id": 34297,
        "meta_element_set_no": 999,
        "meta_rev_at_epoch": 87943,
        "meta_bstar": 0.00028140669,
        "meta_mean_motion_dot": 8.03e-06,
        "meta_mean_motion_ddot": 0,
        "tle_line1": "1 34297U 93036MT  25338.28281711  .00000803  00000+0  28141-3 0  9996",
        "tle_line2": "2 34297  74.0483 299.7617 0016890  10.2824 104.7550 14.36617294879431"
      },
      "geometry": {
        "type": "Point",
        "coordinates": [
          124.94665752179442,
          -19.23140110278469
        ]
      }
    }
  ]
}